SITRO-AIS 28            
1 59071U 24039U   24111.82635241  .00007710  00000+0  74879-3 0  9992
2 59071  95.3999  58.5590 0173566 179.2717 180.8790 14.82045464  7617
